NORAD_CAT_ID,OBJECT_NAME,OBJECT_TYPE,EPOCH,MEAN_MOTION,ECCENTRICITY,INCLINATION,RA_OF_ASC_NODE,ARG_OF_PERICENTER,MEAN_ANOMALY,BSTAR,MEAN_MOTION_DOT,MEAN_MOTION_DDOT,TLE_LINE0,TLE_LINE1,TLE_LINE2,SEMIMAJOR_AXIS,PERIOD,APOGEE,PERIGEE,DECAYED
55924.0,STARLINK-5849,PAYLOAD,2023-12-12 14:20:27,14.98331115,0.0002876,69.9986,187.3264,266.2017,93.8814,-5.5773e-06,-1.6e-06,0.0,0 STARLINK-5849,1 55924U 23037L   23346.59754046 -.00000160  00000-0 -55773-5 0  9999,2 55924  69.9986 187.3264 0002876 266.2017  93.8814 14.98331115 41433,6950.189,96.107,574.053,570.056,0.0
55924.0,STARLINK-5849,PAYLOAD,2023-12-12 22:21:07,14.98331405,0.0002873,69.9986,186.4848,264.0563,96.0269,-1.6849e-06,-1.13e-06,0.0,0 STARLINK-5849,1 55924U 23037L   23346.93133960 -.00000113  00000-0 -16849-5 0  9992,2 55924  69.9986 186.4848 0002873 264.0563  96.0269 14.98331405 41486,6950.189,96.107,574.05,570.057,0.0
55924.0,STARLINK-5849,PAYLOAD,2023-12-13 14:22:28,14.98332206,0.0002856,69.9986,184.8018,262.732,97.3514,-2.3483e-06,-1.21e-06,0.0,0 STARLINK-5849,1 55924U 23037L   23347.59893785 -.00000121  00000-0 -23483-5 0  9994,2 55924  69.9986 184.8018 0002856 262.7320  97.3514 14.98332206 41582,6950.186,96.107,574.036,570.066,0.0
55924.0,STARLINK-5849,PAYLOAD,2023-12-13 19:10:52,14.98332248,0.0002849,69.9986,184.2966,262.59,97.4935,4.522e-07,-8.8e-07,0.0,0 STARLINK-5849,1 55924U 23037L   23347.79921734 -.00000088  00000-0  45220-6 0  9997,2 55924  69.9986 184.2966 0002849 262.5900  97.4935 14.98332248 41957,6950.186,96.107,574.031,570.071,0.0
55924.0,STARLINK-5849,PAYLOAD,2023-12-13 22:23:08,14.98332376,0.0002842,69.9986,183.96,262.5135,97.5702,2.2334e-06,-6.6e-07,0.0,0 STARLINK-5849,1 55924U 23037L   23347.93273695 -.00000066  00000-0  22334-5 0  9995,2 55924  69.9986 183.9600 0002842 262.5135  97.5702 14.98332376 41631,6950.186,96.107,574.026,570.075,0.0
55924.0,STARLINK-5849,PAYLOAD,2023-12-14 14:24:29,14.98327504,0.0002724,69.9989,182.277,258.3232,101.7621,-1.84e-05,-3.12e-06,0.0,0 STARLINK-5849,1 55924U 23037L   23348.60034017 -.00000312  00000-0 -18400-4 0  9996,2 55924  69.9989 182.2770 0002724 258.3232 101.7621 14.98327504 41730,6950.201,96.107,573.959,570.172,0.0
55924.0,STARLINK-5849,PAYLOAD,2023-12-14 20:49:01,14.98326008,0.0002771,69.9986,181.6033,259.4158,100.6689,-3.6769e-05,-5.32e-06,0.0,0 STARLINK-5849,1 55924U 23037L   23348.86738196 -.00000532  00000-0 -36769-4 0  9995,2 55924  69.9986 181.6033 0002771 259.4158 100.6689 14.98326008 42116,6950.205,96.107,573.996,570.144,0.0
55924.0,STARLINK-5849,PAYLOAD,2023-12-14 22:25:09,14.98325572,0.0002795,69.9985,181.4347,261.774,98.3102,-4.2231e-05,-5.97e-06,0.0,0 STARLINK-5849,1 55924U 23037L   23348.93414260 -.00000597  00000-0 -42231-4 0  9998,2 55924  69.9985 181.4347 0002795 261.7740  98.3102 14.98325572 41780,6950.207,96.107,574.014,570.129,0.0
55924.0,STARLINK-5849,PAYLOAD,2023-12-15 14:26:30,14.98328356,0.0002823,69.9983,179.7507,262.49,97.5938,-2.7201e-05,-4.18e-06,0.0,0 STARLINK-5849,1 55924U 23037L   23349.60174114 -.00000418  00000-0 -27201-4 0  9996,2 55924  69.9983 179.7507 0002823 262.4900  97.5938 14.98328356 41886,6950.198,96.107,574.025,570.101,0.0
55924.0,STARLINK-5849,PAYLOAD,2023-12-15 22:27:10,14.98328375,0.0002917,69.9981,178.9087,267.4314,92.6511,-2.7879e-05,-4.26e-06,0.0,0 STARLINK-5849,1 55924U 23037L   23349.93554159 -.00000426  00000-0 -27879-4 0  9993,2 55924  69.9981 178.9087 0002917 267.4314  92.6511 14.98328375 41936,6950.198,96.107,574.09,570.036,0.0
55924.0,STARLINK-5849,PAYLOAD,2023-12-16 14:28:31,14.98324181,0.0002947,69.9979,177.2251,268.2227,91.8595,3.2676e-06,-5.4e-07,0.0,0 STARLINK-5849,1 55924U 23037L   23350.60314463 -.00000054  00000-0  32676-5 0  9999,2 55924  69.9979 177.2251 0002947 268.2227  91.8595 14.98324181 42039,6950.211,96.107,574.124,570.028,0.0
55924.0,STARLINK-5849,PAYLOAD,2023-12-16 22:29:12,14.98324681,0.0002927,69.9981,176.3841,267.4061,92.6763,7.9309e-06,2e-08,0.0,0 STARLINK-5849,1 55924U 23037L   23350.93694529  .00000002  00000-0  79309-5 0  9995,2 55924  69.9981 176.3841 0002927 267.4061  92.6763 14.98324681 42088,6950.209,96.107,574.109,570.04,0.0
55924.0,STARLINK-5849,PAYLOAD,2023-12-17 14:30:32,14.98328993,0.0002951,69.9981,174.7012,267.8502,92.2319,1.7459e-05,1.15e-06,0.0,0 STARLINK-5849,1 55924U 23037L   23351.60454360  .00000115  00000-0  17459-4 0  9999,2 55924  69.9981 174.7012 0002951 267.8502  92.2319 14.98328993 42185,6950.196,96.107,574.112,570.01,0.0
55924.0,STARLINK-5849,PAYLOAD,2023-12-17 22:31:12,14.98331005,0.0002929,69.9982,173.8602,268.168,91.9143,4.1893e-05,4.07e-06,0.0,0 STARLINK-5849,1 55924U 23037L   23351.93834181  .00000407  00000-0  41893-4 0  9991,2 55924  69.9982 173.8602 0002929 268.1680  91.9143 14.98331005 42232,6950.19,96.107,574.09,570.019,0.0
55924.0,STARLINK-5849,PAYLOAD,2023-12-18 14:32:33,14.98334194,0.0003006,69.9981,172.1766,273.8259,86.2556,8.6568e-05,9.4e-06,0.0,0 STARLINK-5849,1 55924U 23037L   23352.60593766  .00000940  00000-0  86568-4 0  9997,2 55924  69.9981 172.1766 0003006 273.8259  86.2556 14.98334194 42334,6950.18,96.107,574.134,569.956,0.0
55924.0,STARLINK-5849,PAYLOAD,2023-12-18 20:57:05,14.98335976,0.0002988,69.9983,171.5035,274.4183,85.6634,0.00010101,1.113e-05,0.0,0 STARLINK-5849,1 55924U 23037L   23352.87297531  .00001113  00000-0  10101-3 0  9999,2 55924  69.9983 171.5035 0002988 274.4183  85.6634 14.98335976 42372,6950.174,96.107,574.116,569.963,0.0
55924.0,STARLINK-5849,PAYLOAD,2023-12-19 14:34:34,14.98332646,0.0002897,69.9984,169.6522,272.6073,87.4755,-4.2447e-06,-1.44e-06,0.0,0 STARLINK-5849,1 55924U 23037L   23353.60733811 -.00000144  00000-0 -42447-5 0  9992,2 55924  69.9984 169.6522 0002897 272.6073  87.4755 14.98332646 42486,6950.185,96.107,574.063,570.036,0.0
55924.0,STARLINK-5849,PAYLOAD,2023-12-19 19:22:58,14.98330403,0.0002943,69.9984,169.1473,272.8844,87.1978,-3.2197e-05,-4.77e-06,0.0,0 STARLINK-5849,1 55924U 23037L   23353.80761990 -.00000477  00000-0 -32197-4 0  9992,2 55924  69.9984 169.1473 0002943 272.8844  87.1978 14.98330403 42850,6950.192,96.107,574.102,570.011,0.0
55924.0,STARLINK-5849,PAYLOAD,2023-12-20 13:00:26,14.98334314,0.0002842,69.9989,167.297,264.1103,95.9732,-6.4304e-05,-8.6e-06,0.0,0 STARLINK-5849,1 55924U 23037L   23354.54197639 -.00000860  00000-0 -64304-4 0  9998,2 55924  69.9989 167.2970 0002842 264.1103  95.9732 14.98334314 42621,6950.18,96.107,574.02,570.069,0.0
55924.0,STARLINK-5849,PAYLOAD,2023-12-20 19:24:59,14.98333165,0.0002858,69.9991,166.6239,263.7316,96.3518,-7.1393e-05,-9.45e-06,0.0,0 STARLINK-5849,1 55924U 23037L   23354.80901656 -.00000945  00000-0 -71393-4 0  9999,2 55924  69.9991 166.6239 0002858 263.7316  96.3518 14.98333165 43006,6950.183,96.107,574.034,570.062,0.0
55924.0,STARLINK-5849,PAYLOAD,2023-12-20 21:01:07,14.98333309,0.0002872,69.999,166.4555,264.7794,95.3037,-6.88e-05,-9.14e-06,0.0,0 STARLINK-5849,1 55924U 23037L   23354.87577630 -.00000914  00000-0 -68800-4 0  9992,2 55924  69.9990 166.4555 0002872 264.7794  95.3037 14.98333309 42678,6950.183,96.107,574.044,570.052,0.0
55924.0,STARLINK-5849,PAYLOAD,2023-12-21 14:38:35,14.98327667,0.0002868,69.9993,164.6042,261.4655,98.6179,-3.664e-06,-1.37e-06,0.0,0 STARLINK-5849,1 55924U 23037L   23355.61013722 -.00000137  00000-0 -36640-5 0  9997,2 55924  69.9993 164.6042 0002868 261.4655  98.6179 14.98327667 42782,6950.2,96.107,574.058,570.072,0.0
55924.0,STARLINK-5849,PAYLOAD,2023-12-21 21:03:08,14.98327044,0.0002905,69.9992,163.9309,263.7981,96.2847,-1.1927e-05,-2.35e-06,0.0,0 STARLINK-5849,1 55924U 23037L   23355.87717832 -.00000235  00000-0 -11927-4 0  9997,2 55924  69.9992 163.9309 0002905 263.7981  96.2847 14.98327044 42828,6950.202,96.107,574.086,570.048,0.0
55924.0,STARLINK-5849,PAYLOAD,2023-12-22 14:40:36,14.98330062,0.0003069,69.999,162.079,268.4665,91.6143,1.6305e-06,-7.4e-07,0.0,0 STARLINK-5849,1 55924U 23037L   23356.61153639 -.00000074  00000-0  16305-5 0  9995,2 55924  69.9990 162.0790 0003069 268.4665  91.6143 14.98330062 42937,6950.193,96.107,574.191,569.925,0.0
55924.0,STARLINK-5849,PAYLOAD,2023-12-22 21:05:08,14.98333401,0.0003084,69.9989,161.4058,268.33,91.7506,3.5397e-05,3.29e-06,0.0,0 STARLINK-5849,1 55924U 23037L   23356.87857301  .00000329  00000-0  35397-4 0  9993,2 55924  69.9989 161.4058 0003084 268.3300  91.7506 14.98333401 42975,6950.182,96.107,574.191,569.904,0.0
55924.0,STARLINK-5849,PAYLOAD,2023-12-23 14:42:37,14.98330201,0.0003075,69.9991,159.5546,266.5257,93.555,1.6333e-05,1.02e-06,0.0,0 STARLINK-5849,1 55924U 23037L   23357.61293500  .00000102  00000-0  16333-4 0  9999,2 55924  69.9991 159.5546 0003075 266.5257  93.5550 14.98330201 43086,6950.192,96.107,574.194,569.92,0.0
55924.0,STARLINK-5849,PAYLOAD,2023-12-23 21:07:09,14.98333432,0.0003062,69.999,158.8808,265.5973,94.4836,4.8665e-05,4.88e-06,0.0,0 STARLINK-5849,1 55924U 23037L   23357.87997165  .00000488  00000-0  48665-4 0  9995,2 55924  69.9990 158.8808 0003062 265.5973  94.4836 14.98333432 43129,6950.182,96.107,574.175,569.919,0.0
55924.0,STARLINK-5849,PAYLOAD,2023-12-24 11:32:21,14.98366871,0.0002757,69.9993,157.3656,268.9574,91.1269,-0.0005165,-6.256e-05,0.0,0 STARLINK-5849,1 55924U 23037L   23358.48080947 -.00006256  00000-0 -51650-3 0  9992,2 55924  69.9993 157.3656 0002757 268.9574  91.1269 14.98366871 43555,6950.079,96.105,573.86,570.028,0.0
55924.0,STARLINK-5849,PAYLOAD,2023-12-24 14:44:37,14.98368018,0.0002773,69.9994,157.0294,269.2302,90.8539,-0.00053845,-6.518e-05,0.0,0 STARLINK-5849,1 55924U 23037L   23358.61432666 -.00006518  00000-0 -53845-3 0  9995,2 55924  69.9994 157.0294 0002773 269.2302  90.8539 14.98368018 43238,6950.075,96.105,573.868,570.013,0.0
55924.0,STARLINK-5849,PAYLOAD,2023-12-24 21:09:10,14.98337505,0.0003012,69.9992,156.356,263.829,96.2526,5.4585e-05,5.58e-06,0.0,0 STARLINK-5849,1 55924U 23037L   23358.88136631  .00000558  00000-0  54585-4 0  9996,2 55924  69.9992 156.3560 0003012 263.8290  96.2526 14.98337505 43274,6950.17,96.107,574.128,569.941,0.0
